[
    {
        "Altitude(m)": 622200.1159258465,
        "Argument of Periapsis(deg)": 0.0,
        "Eccentricity": 0.0,
        "Inclination(deg)": 60.0,
        "Latitude(deg)": -52.162562308277735,
        "Longitude(deg)": 2.360893636398623,
        "Mean Anomaly(deg)": -65.45450000000001,
        "RAAN(deg)": 150.0,
        "Satellite Name": "Test1 678",
        "Satellite Number": 678,
        "Semi-Major Axis(m)": 6980739.136638005,
        "Time(s)": 0
    },
    {
        "Altitude(m)": 622058.2831655585,
        "Argument of Periapsis(deg)": 0.00010418945913296404,
        "Eccentricity": 0.0,
        "Inclination(deg)": 60.0,
        "Latitude(deg)": -51.79931048508131,
        "Longitude(deg)": 3.1289500841823137,
        "Mean Anomaly(deg)": -64.83439385453815,
        "RAAN(deg)": 149.99957995086027,
        "Satellite Name": "Test1 678",
        "Satellite Number": 678,
        "Semi-Major Axis(m)": 6980739.136638005,
        "Time(s)": 10
    }
]